[Satellite]
VERSION=1.1
NAME=GPS BIIRM-2 (PRN 31)
NICKNAME=GPS BIIRM-2 (PRN 31)
TLE1=1 29486U 06042A   22342.48766464  .00000070  00000+0  00000+0 0  9994
TLE2=2 29486  54.6979 202.3600 0106472  26.1639 226.6585  2.00569058118583
STATUS=0
